[{"OBJECT_NAME":"STARLINK-3976","OBJECT_ID":"2022-053T","EPOCH":"2026-03-09T12:05:07.021536","MEAN_MOTION":15.0883706,"ECCENTRICITY":0.00013397,"INCLINATION":53.2174,"RA_OF_ASC_NODE":154.9554,"ARG_OF_PERICENTER":82.5118,"MEAN_ANOMALY":277.6027,"EPHEMERIS_TYPE":0,"CLASSIFICATION_TYPE":"U","NORAD_CAT_ID":52673,"ELEMENT_SET_NO":999,"REV_AT_EPOCH":21101,"BSTAR":-8.253538e-6,"MEAN_MOTION_DOT":-4.19e-6,"MEAN_MOTION_DDOT":0},{"OBJECT_NAME":"PSLV R\/B","OBJECT_ID":"2010-035F","EPOCH":"2026-03-09T21:32:02.806944","MEAN_MOTION":15.11637156,"ECCENTRICITY":0.00120112,"INCLINATION":97.9796,"RA_OF_ASC_NODE":355.2302,"ARG_OF_PERICENTER":197.9598,"MEAN_ANOMALY":162.1208,"EPHEMERIS_TYPE":0,"CLASSIFICATION_TYPE":"U","NORAD_CAT_ID":36800,"ELEMENT_SET_NO":999,"REV_AT_EPOCH":85407,"BSTAR":0.00037264097,"MEAN_MOTION_DOT":6.275e-5,"MEAN_MOTION_DDOT":0}]
